SL-16 R/B               
1 25400U 98043G   26044.80584362  .00000062  00000+0  44848-4 0  9996
2 25400  98.8212 358.0060 0010985  84.1732 276.0700 14.26043965435580
SL-16 R/B               
1 25407U 98045B   26044.98172825  .00000302  00000+0  17643-3 0  9990
2 25407  71.0085 231.4300 0005602  51.5502 308.6124 14.16187242423745
ISS (ZARYA)             
1 25544U 98067A   26045.21445063  .00008429  00000+0  16304-3 0  9991
2 25544  51.6315 188.3997 0011062  96.9141 263.3106 15.48593530552699
CZ-4B R/B               
1 25732U 99025C   26045.10095548  .00000064  00000+0  51588-4 0  9993
2 25732  98.6674  89.9360 0037959  53.9246   0.6771 14.18260492384821
OKEAN-O                 
1 25860U 99039A   26045.12915185  .00000698  00000+0  98535-4 0  9996
2 25860  97.9495 105.2540 0001853  82.8921 277.2502 14.80296158430905
SL-16 R/B               
1 25861U 99039B   26045.13127461  .00000618  00000+0  85215-4 0  9993
2 25861  98.0018 104.2567 0014220 339.0448  21.0180 14.81697750433375
DELTA 2 R/B             
1 25876U 99041E   26045.15069016  .00002095  00000+0  37448-3 0  9990
2 25876  51.7656  35.2823 0502260 278.8988  75.5423 14.11746161359700
HELIOS 1B               
1 25977U 99064A   26045.23967119  .00001951  00000+0  22113-3 0  9990
2 25977  98.1723 306.7912 0002240 105.9520 254.1942 14.87599488681779
TERRA                   
1 25994U 99068A   26045.22578913  .00000517  00000+0  11458-3 0  9999
2 25994  97.9644  99.5508 0001074 232.2326 197.5159 14.60989012391659
SL-16 R/B               
1 26070U 00006B   26045.27355603 -.00000227  00000+0 -90806-4 0  9998
2 26070  71.0028 147.0729 0018139 223.2462 136.7238 14.15819299345245
TITAN 4B R/B            
1 26474U 00047B   26045.23942354  .00003396  00000+0  21721-3 0  9999
2 26474  67.9888 106.4428 0037067  64.1410 296.3554 15.09359524389372
ENVISAT                 
1 27386U 02009A   26044.82586473  .00000132  00000+0  56679-4 0  9998
2 27386  98.3686 358.9977 0001342  88.0018 299.9675 14.39027861255742
