CCSDS_OMM_VERS = 2.0
CREATION_DATE  = 
ORIGINATOR     = 

OBJECT_NAME    = SL-16 R/B
OBJECT_ID      = 1998-043G
CENTER_NAME    = EARTH
REF_FRAME      = TEME
TIME_SYSTEM    = UTC
MEAN_ELEMENT_THEORY = SGP/SGP4

EPOCH          = 2026-02-13T19:20:24.888768
MEAN_MOTION    = 14.26043965
ECCENTRICITY   = .00109858
INCLINATION    = 98.8212
RA_OF_ASC_NODE = 358.0060
ARG_OF_PERICENTER = 84.1732
MEAN_ANOMALY   = 276.0700

EPHEMERIS_TYPE = 0
CLASSIFICATION_TYPE = U
NORAD_CAT_ID   = 25400
ELEMENT_SET_NO = 999
REV_AT_EPOCH   = 43558
BSTAR          = .44847909E-4
MEAN_MOTION_DOT = .62E-6
MEAN_MOTION_DDOT = 0

CCSDS_OMM_VERS = 2.0
CREATION_DATE  = 
ORIGINATOR     = 

OBJECT_NAME    = SL-16 R/B
OBJECT_ID      = 1998-045B
CENTER_NAME    = EARTH
REF_FRAME      = TEME
TIME_SYSTEM    = UTC
MEAN_ELEMENT_THEORY = SGP/SGP4

EPOCH          = 2026-02-13T23:33:41.320800
MEAN_MOTION    = 14.16187242
ECCENTRICITY   = .00056024
INCLINATION    = 71.0085
RA_OF_ASC_NODE = 231.4300
ARG_OF_PERICENTER = 51.5502
MEAN_ANOMALY   = 308.6124

EPHEMERIS_TYPE = 0
CLASSIFICATION_TYPE = U
NORAD_CAT_ID   = 25407
ELEMENT_SET_NO = 999
REV_AT_EPOCH   = 42374
BSTAR          = .17643117E-3
MEAN_MOTION_DOT = .302E-5
MEAN_MOTION_DDOT = 0

CCSDS_OMM_VERS = 2.0
CREATION_DATE  = 
ORIGINATOR     = 

OBJECT_NAME    = ISS (ZARYA)
OBJECT_ID      = 1998-067A
CENTER_NAME    = EARTH
REF_FRAME      = TEME
TIME_SYSTEM    = UTC
MEAN_ELEMENT_THEORY = SGP/SGP4

EPOCH          = 2026-02-14T05:08:48.534432
MEAN_MOTION    = 15.48593530
ECCENTRICITY   = .00110623
INCLINATION    = 51.6315
RA_OF_ASC_NODE = 188.3997
ARG_OF_PERICENTER = 96.9141
MEAN_ANOMALY   = 263.3106

EPHEMERIS_TYPE = 0
CLASSIFICATION_TYPE = U
NORAD_CAT_ID   = 25544
ELEMENT_SET_NO = 999
REV_AT_EPOCH   = 55269
BSTAR          = .16303535E-3
MEAN_MOTION_DOT = .8429E-4
MEAN_MOTION_DDOT = 0

CCSDS_OMM_VERS = 2.0
CREATION_DATE  = 
ORIGINATOR     = 

OBJECT_NAME    = CZ-4B R/B
OBJECT_ID      = 1999-025C
CENTER_NAME    = EARTH
REF_FRAME      = TEME
TIME_SYSTEM    = UTC
MEAN_ELEMENT_THEORY = SGP/SGP4

EPOCH          = 2026-02-14T02:25:22.553472
MEAN_MOTION    = 14.18260492
ECCENTRICITY   = .00379599
INCLINATION    = 98.6674
RA_OF_ASC_NODE = 89.9360
ARG_OF_PERICENTER = 53.9246
MEAN_ANOMALY   = 0.6771

EPHEMERIS_TYPE = 0
CLASSIFICATION_TYPE = U
NORAD_CAT_ID   = 25732
ELEMENT_SET_NO = 999
REV_AT_EPOCH   = 38482
BSTAR          = .51588322E-4
MEAN_MOTION_DOT = .64E-6
MEAN_MOTION_DDOT = 0

CCSDS_OMM_VERS = 2.0
CREATION_DATE  = 
ORIGINATOR     = 

OBJECT_NAME    = OKEAN-O
OBJECT_ID      = 1999-039A
CENTER_NAME    = EARTH
REF_FRAME      = TEME
TIME_SYSTEM    = UTC
MEAN_ELEMENT_THEORY = SGP/SGP4

EPOCH          = 2026-02-14T03:05:58.719840
MEAN_MOTION    = 14.80296158
ECCENTRICITY   = .00018536
INCLINATION    = 97.9495
RA_OF_ASC_NODE = 105.2540
ARG_OF_PERICENTER = 82.8921
MEAN_ANOMALY   = 277.2502

EPHEMERIS_TYPE = 0
CLASSIFICATION_TYPE = U
NORAD_CAT_ID   = 25860
ELEMENT_SET_NO = 999
REV_AT_EPOCH   = 43090
BSTAR          = .98534798E-4
MEAN_MOTION_DOT = .698E-5
MEAN_MOTION_DDOT = 0

CCSDS_OMM_VERS = 2.0
CREATION_DATE  = 
ORIGINATOR     = 

OBJECT_NAME    = SL-16 R/B
OBJECT_ID      = 1999-039B
CENTER_NAME    = EARTH
REF_FRAME      = TEME
TIME_SYSTEM    = UTC
MEAN_ELEMENT_THEORY = SGP/SGP4

EPOCH          = 2026-02-14T03:09:02.126304
MEAN_MOTION    = 14.81697750
ECCENTRICITY   = .00142204
INCLINATION    = 98.0018
RA_OF_ASC_NODE = 104.2567
ARG_OF_PERICENTER = 339.0448
MEAN_ANOMALY   = 21.0180

EPHEMERIS_TYPE = 0
CLASSIFICATION_TYPE = U
NORAD_CAT_ID   = 25861
ELEMENT_SET_NO = 999
REV_AT_EPOCH   = 43337
BSTAR          = .85214921E-4
MEAN_MOTION_DOT = .618E-5
MEAN_MOTION_DDOT = 0

CCSDS_OMM_VERS = 2.0
CREATION_DATE  = 
ORIGINATOR     = 

OBJECT_NAME    = DELTA 2 R/B
OBJECT_ID      = 1999-041E
CENTER_NAME    = EARTH
REF_FRAME      = TEME
TIME_SYSTEM    = UTC
MEAN_ELEMENT_THEORY = SGP/SGP4

EPOCH          = 2026-02-14T03:36:59.629824
MEAN_MOTION    = 14.11746161
ECCENTRICITY   = .05022602
INCLINATION    = 51.7656
RA_OF_ASC_NODE = 35.2823
ARG_OF_PERICENTER = 278.8988
MEAN_ANOMALY   = 75.5423

EPHEMERIS_TYPE = 0
CLASSIFICATION_TYPE = U
NORAD_CAT_ID   = 25876
ELEMENT_SET_NO = 999
REV_AT_EPOCH   = 35970
BSTAR          = .37448245E-3
MEAN_MOTION_DOT = .2095E-4
MEAN_MOTION_DDOT = 0

CCSDS_OMM_VERS = 2.0
CREATION_DATE  = 
ORIGINATOR     = 

OBJECT_NAME    = HELIOS 1B
OBJECT_ID      = 1999-064A
CENTER_NAME    = EARTH
REF_FRAME      = TEME
TIME_SYSTEM    = UTC
MEAN_ELEMENT_THEORY = SGP/SGP4

EPOCH          = 2026-02-14T05:45:07.590816
MEAN_MOTION    = 14.87599488
ECCENTRICITY   = .00022409
INCLINATION    = 98.1723
RA_OF_ASC_NODE = 306.7912
ARG_OF_PERICENTER = 105.9520
MEAN_ANOMALY   = 254.1942

EPHEMERIS_TYPE = 0
CLASSIFICATION_TYPE = U
NORAD_CAT_ID   = 25977
ELEMENT_SET_NO = 999
REV_AT_EPOCH   = 68177
BSTAR          = .22113447E-3
MEAN_MOTION_DOT = .1951E-4
MEAN_MOTION_DDOT = 0

CCSDS_OMM_VERS = 2.0
CREATION_DATE  = 
ORIGINATOR     = 

OBJECT_NAME    = TERRA
OBJECT_ID      = 1999-068A
CENTER_NAME    = EARTH
REF_FRAME      = TEME
TIME_SYSTEM    = UTC
MEAN_ELEMENT_THEORY = SGP/SGP4

EPOCH          = 2026-02-14T05:25:08.180832
MEAN_MOTION    = 14.60989012
ECCENTRICITY   = .00010747
INCLINATION    = 97.9644
RA_OF_ASC_NODE = 99.5508
ARG_OF_PERICENTER = 232.2326
MEAN_ANOMALY   = 197.5159

EPHEMERIS_TYPE = 0
CLASSIFICATION_TYPE = U
NORAD_CAT_ID   = 25994
ELEMENT_SET_NO = 999
REV_AT_EPOCH   = 39165
BSTAR          = .11458089E-3
MEAN_MOTION_DOT = .517E-5
MEAN_MOTION_DDOT = 0

CCSDS_OMM_VERS = 2.0
CREATION_DATE  = 
ORIGINATOR     = 

OBJECT_NAME    = SL-16 R/B
OBJECT_ID      = 2000-006B
CENTER_NAME    = EARTH
REF_FRAME      = TEME
TIME_SYSTEM    = UTC
MEAN_ELEMENT_THEORY = SGP/SGP4

EPOCH          = 2026-02-14T06:33:55.240992
MEAN_MOTION    = 14.15819299
ECCENTRICITY   = .00181395
INCLINATION    = 71.0028
RA_OF_ASC_NODE = 147.0729
ARG_OF_PERICENTER = 223.2462
MEAN_ANOMALY   = 136.7238

EPHEMERIS_TYPE = 0
CLASSIFICATION_TYPE = U
NORAD_CAT_ID   = 26070
ELEMENT_SET_NO = 999
REV_AT_EPOCH   = 34524
BSTAR          = -.90806075E-4
MEAN_MOTION_DOT = -.227E-5
MEAN_MOTION_DDOT = 0

CCSDS_OMM_VERS = 2.0
CREATION_DATE  = 
ORIGINATOR     = 

OBJECT_NAME    = TITAN 4B R/B
OBJECT_ID      = 2000-047B
CENTER_NAME    = EARTH
REF_FRAME      = TEME
TIME_SYSTEM    = UTC
MEAN_ELEMENT_THEORY = SGP/SGP4

EPOCH          = 2026-02-14T05:44:46.193856
MEAN_MOTION    = 15.09359524
ECCENTRICITY   = .00370673
INCLINATION    = 67.9888
RA_OF_ASC_NODE = 106.4428
ARG_OF_PERICENTER = 64.1410
MEAN_ANOMALY   = 296.3554

EPHEMERIS_TYPE = 0
CLASSIFICATION_TYPE = U
NORAD_CAT_ID   = 26474
ELEMENT_SET_NO = 999
REV_AT_EPOCH   = 38937
BSTAR          = .21720982E-3
MEAN_MOTION_DOT = .3396E-4
MEAN_MOTION_DDOT = 0

CCSDS_OMM_VERS = 2.0
CREATION_DATE  = 
ORIGINATOR     = 

OBJECT_NAME    = ENVISAT
OBJECT_ID      = 2002-009A
CENTER_NAME    = EARTH
REF_FRAME      = TEME
TIME_SYSTEM    = UTC
MEAN_ELEMENT_THEORY = SGP/SGP4

EPOCH          = 2026-02-13T19:49:14.712672
MEAN_MOTION    = 14.39027861
ECCENTRICITY   = .00013426
INCLINATION    = 98.3686
RA_OF_ASC_NODE = 358.9977
ARG_OF_PERICENTER = 88.0018
MEAN_ANOMALY   = 299.9675

EPHEMERIS_TYPE = 0
CLASSIFICATION_TYPE = U
NORAD_CAT_ID   = 27386
ELEMENT_SET_NO = 999
REV_AT_EPOCH   = 25574
BSTAR          = .56678801E-4
MEAN_MOTION_DOT = .132E-5
MEAN_MOTION_DDOT = 0

